OBJECT_NAME,OBJECT_ID,EPOCH,MEAN_MOTION,ECCENTRICITY,INCLINATION,RA_OF_ASC_NODE,ARG_OF_PERICENTER,MEAN_ANOMALY,EPHEMERIS_TYPE,CLASSIFICATION_TYPE,NORAD_CAT_ID,ELEMENT_SET_NO,REV_AT_EPOCH,BSTAR,MEAN_MOTION_DOT,MEAN_MOTION_DDOT
EUTELSAT HOTBIRD 13F,2022-134A,2026-07-11T08:41:02.594976,1.00270860,.00018943,0.0527,288.2883,64.0246,80.2271,0,U,54048,999,1361,0,.93E-6,0
LDPE-2,2022-144A,2026-07-11T16:20:36.093120,1.00542582,.0002399,5.6696,63.4450,110.9246,226.3752,0,U,54219,999,1208,0,.47E-6,0
EUTELSAT HOTBIRD 13G,2022-146A,2026-07-11T20:27:47.276928,1.00272538,.0002249,0.0446,222.9067,322.6434,64.1524,0,U,54225,999,771,0,.91E-6,0
ZHONGXING-19,2022-148A,2026-07-11T17:45:22.984704,1.00270480,.0002932,0.0169,301.5336,197.1569,220.4846,0,U,54230,999,1362,0,-.77E-6,0
GALAXY 31 (G-31),2022-153A,2026-07-11T16:24:20.733984,1.00270051,.0000918,0.0240,56.8389,61.9689,295.8604,0,U,54243,999,737,0,0,0
GALAXY 32 (G-32),2022-153B,2026-07-11T06:16:55.034976,1.00271069,.00014569,0.0115,41.9388,4.2849,246.1793,0,U,54244,999,1338,0,-.167E-5,0
EUTELSAT 10B,2022-157A,2026-07-11T08:41:38.595264,1.00270308,.00016655,0.0608,95.6005,17.8010,316.2721,0,U,54259,999,1326,0,.74E-6,0
GALAXY 35 (G-35),2022-170A,2026-07-11T19:57:25.860384,1.00269280,.0001863,0.0204,48.3005,68.9556,18.7328,0,U,54741,999,1314,0,0,0
GALAXY 36 (G-36),2022-170B,2026-07-11T19:58:48.228096,1.00271128,.000236,0.0281,111.5754,348.2212,40.6410,0,U,54742,999,1302,0,-.181E-5,0
METEOSAT-12 (MTG-I1),2022-170C,2026-07-11T20:24:02.636064,1.00267004,.0003787,0.7214,19.1046,82.8397,133.5456,0,U,54743,999,1322,0,-.4E-7,0
SHIJIAN-23 (SJ-23),2023-002A,2026-07-11T17:10:31.710720,1.00078207,.0003417,3.7776,78.0038,270.2862,330.4998,0,U,55131,999,1275,0,-.344E-5,0
USA 342,2023-008A,2026-07-09T06:55:38.597952,1.00269378,.0000262,0.0052,352.2306,7.3445,55.4773,0,U,55263,999,1273,0,0,0
LDPE-3A,2023-008B,2026-07-11T19:24:36.507168,0.99151021,.0001512,2.4093,81.3596,79.5702,211.3855,0,U,55264,999,1205,0,-.285E-5,0
ELEKTRO-L 4,2023-016A,2026-07-11T17:38:16.149696,1.00272373,.0001255,0.1079,129.0752,47.7958,183.1237,0,U,55506,999,1257,0,-.53E-6,0
AMAZONAS NEXUS,2023-017A,2026-07-11T13:16:04.759968,1.00269216,.0004412,0.0349,41.3147,43.3627,342.7993,0,U,55508,999,728,0,-.277E-5,0
ZHONGXING-26,2023-023A,2026-07-11T15:51:46.357344,1.00274397,.0003364,0.0660,71.3982,31.9982,189.2021,0,U,55686,999,1247,0,-.349E-5,0
LUCH-5X (OLYMP-K 2),2023-031A,2026-07-11T16:23:20.565024,1.00270002,.0000943,0.0297,92.0561,160.2588,345.0840,0,U,55841,999,1218,0,.38E-6,0
GAOFEN-13 02,2023-036A,2026-07-11T17:41:00.904128,1.00275004,.0003718,1.0265,4.1097,336.6142,2.3618,0,U,55912,999,1233,0,-.214E-5,0
SES-18,2023-038A,2026-07-11T14:46:44.896224,1.00271302,.0000713,0.0489,264.9854,308.1870,194.9434,0,U,55970,999,1234,0,-.96E-6,0
INTELSAT 40E (IS-40E),2023-052A,2026-07-11T19:58:10.788384,1.00271359,.0002204,0.0146,86.9489,58.2894,353.0423,0,U,56174,999,1207,0,-.17E-5,0
VIASAT-3 F1,2023-060A,2026-07-11T19:58:48.228096,1.00268906,.0000934,0.0165,23.0322,86.6489,30.7788,0,U,56370,999,1168,0,0,0
ARCTURUS,2023-060B,2026-07-11T20:51:19.711296,1.00596039,.0000802,2.8362,79.6351,133.0710,125.0367,0,U,56371,999,1170,0,-.316E-5,0
BEIDOU-3 G4,2023-066A,2026-07-11T21:04:03.490752,1.00273609,.0004867,0.4632,337.9255,188.1650,219.7465,0,U,56564,999,1164,0,-.276E-5,0
NVS-01 (IRNSS-1J),2023-076A,2026-07-11T19:18:22.104000,1.00266230,.0003529,2.1103,243.2475,7.3711,98.1724,0,U,56759,999,1136,0,-.33E-5,0
NUSANTARA TIGA (SATRIA),2023-086A,2026-07-11T14:08:38.955264,1.00267940,.000224,0.0344,10.1723,330.6150,306.8651,0,U,57045,999,1000,0,-.23E-5,0
H2SAT (HEINRICH HERTZ),2023-093A,2026-07-11T20:24:17.611776,1.00269676,.0000346,0.0152,97.7205,42.1046,96.7013,0,U,57213,999,1116,0,.6E-7,0
SYRACUSE 4B,2023-093B,2026-07-11T20:22:17.805216,1.00270865,.0000513,0.0302,51.8268,192.6516,344.3919,0,U,57214,999,721,0,0,0
JUPITER 3 (ECHOSTAR 24),2023-108A,2026-07-10T11:07:24.416256,1.00270144,.00011441,0.0227,41.8846,62.5557,255.5724,0,U,57479,999,1088,0,0,0
